{
  "type": "FeatureCollection",
  "features": [
    {
      "type": "Feature",
      "properties": {
        "norad_id": 42917,
        "name": "QZS-3 (QZSS/PRN 199)",
        "group": "gnss",
        "lat": -0.0001554649033008251,
        "lon": 0.2649191841098026,
        "alt_km": 35786.562151320824,
        "timestamp": "2025-12-20T09:36:01.888152+00:00",
        "meta_object_name": "QZS-3 (QZSS/PRN 199)",
        "meta_object_id": "2017-048A",
        "meta_epoch": "2025-12-20T00:00:38.824704",
        "meta_mean_motion": 1.00266026,
        "meta_eccentricity": 0.000182,
        "meta_inclination": 0.0258,
        "meta_ra_of_asc_node": 171.7848,
        "meta_arg_of_pericenter": 107.5018,
        "meta_mean_anomaly": 296.7358,
        "meta_ephemeris_type": 0,
        "meta_classification_type": "U",
        "meta_norad_cat_id": 42917,
        "meta_element_set_no": 999,
        "meta_rev_at_epoch": 3046,
        "meta_bstar": 0,
        "meta_mean_motion_dot": 0,
        "meta_mean_motion_ddot": 0,
        "tle_line1": "1 42917U 17048A   25354.00044936  .00000000  00000+0  00000+0 0  9996",
        "tle_line2": "2 42917   0.0258 171.7848 0001820 107.5018 296.7358  1.00266026 30465"
      },
      "geometry": {
        "type": "Point",
        "coordinates": [
          0.2649191841098026,
          -0.0001554649033008251
        ]
      }
    },
    {
      "type": "Feature",
      "properties": {
        "norad_id": 42939,
        "name": "COSMOS 2522 (752)",
        "group": "gnss",
        "lat": 43.20845406223122,
        "lon": -134.82519083160625,
        "alt_km": 19141.099286180684,
        "timestamp": "2025-12-20T09:36:01.888163+00:00",
        "meta_object_name": "COSMOS 2522 (752)",
        "meta_object_id": "2017-055A",
        "meta_epoch": "2025-12-19T20:47:07.990080",
        "meta_mean_motion": 2.13102095,
        "meta_eccentricity": 0.0006377,
        "meta_inclination": 64.0763,
        "meta_ra_of_asc_node": 197.9863,
        "meta_arg_of_pericenter": 224.0573,
        "meta_mean_anomaly": 135.969,
        "meta_ephemeris_type": 0,
        "meta_classification_type": "U",
        "meta_norad_cat_id": 42939,
        "meta_element_set_no": 999,
        "meta_rev_at_epoch": 6415,
        "meta_bstar": 0,
        "meta_mean_motion_dot": 1.03e-06,
        "meta_mean_motion_ddot": 0,
        "tle_line1": "1 42939U 17055A   25353.86606470  .00000103  00000+0  00000+0 0  9992",
        "tle_line2": "2 42939  64.0763 197.9863 0006377 224.0573 135.9690  2.13102095 64156"
      },
      "geometry": {
        "type": "Point",
        "coordinates": [
          -134.82519083160625,
          43.20845406223122
        ]
      }
    },
    {
      "type": "Feature",
      "properties": {
        "norad_id": 42965,
        "name": "QZS-4 (QZSS/PRN 195)",
        "group": "gnss",
        "lat": 19.418706030319377,
        "lon": 10.405222118238026,
        "alt_km": 37154.20196183013,
        "timestamp": "2025-12-20T09:36:01.888175+00:00",
        "meta_object_name": "QZS-4 (QZSS/PRN 195)",
        "meta_object_id": "2017-062A",
        "meta_epoch": "2025-12-19T20:42:54.101088",
        "meta_mean_motion": 1.00251063,
        "meta_eccentricity": 0.0751489,
        "meta_inclination": 40.2223,
        "meta_ra_of_asc_node": 345.7806,
        "meta_arg_of_pericenter": 271.6926,
        "meta_mean_anomaly": 277.7654,
        "meta_ephemeris_type": 0,
        "meta_classification_type": "U",
        "meta_norad_cat_id": 42965,
        "meta_element_set_no": 999,
        "meta_rev_at_epoch": 3000,
        "meta_bstar": 0,
        "meta_mean_motion_dot": -3.29e-06,
        "meta_mean_motion_ddot": 0,
        "tle_line1": "1 42965U 17062A   25353.86312617 -.00000329  00000+0  00000+0 0  9997",
        "tle_line2": "2 42965  40.2223 345.7806 0751489 271.6926 277.7654  1.00251063 30000"
      },
      "geometry": {
        "type": "Point",
        "coordinates": [
          10.405222118238026,
          19.418706030319377
        ]
      }
    },
    {
      "type": "Feature",
      "properties": {
        "norad_id": 43001,
        "name": "BEIDOU-3 M1 (C19)",
        "group": "gnss",
        "lat": 39.03002430009188,
        "lon": 101.36923437621489,
        "alt_km": 21530.989007480544,
        "timestamp": "2025-12-20T09:36:01.888187+00:00",
        "meta_object_name": "BEIDOU-3 M1 (C19)",
        "meta_object_id": "2017-069A",
        "meta_epoch": "2025-12-19T06:04:23.941632",
        "meta_mean_motion": 1.86231412,
        "meta_eccentricity": 0.0009566,
        "meta_inclination": 56.5322,
        "meta_ra_of_asc_node": 69.0186,
        "meta_arg_of_pericenter": 302.1864,
        "meta_mean_anomaly": 57.7554,
        "meta_ephemeris_type": 0,
        "meta_classification_type": "U",
        "meta_norad_cat_id": 43001,
        "meta_element_set_no": 999,
        "meta_rev_at_epoch": 5525,
        "meta_bstar": 0,
        "meta_mean_motion_dot": -5.5e-07,
        "meta_mean_motion_ddot": 0,
        "tle_line1": "1 43001U 17069A   25353.25305488 -.00000055  00000+0  00000+0 0  9993",
        "tle_line2": "2 43001  56.5322  69.0186 0009566 302.1864  57.7554  1.86231412 55251"
      },
      "geometry": {
        "type": "Point",
        "coordinates": [
          101.36923437621489,
          39.03002430009188
        ]
      }
    },
    {
      "type": "Feature",
      "properties": {
        "norad_id": 43002,
        "name": "BEIDOU-3 M2 (C20)",
        "group": "gnss",
        "lat": 56.555175973359674,
        "lon": 159.65761974647518,
        "alt_km": 21530.647831516155,
        "timestamp": "2025-12-20T09:36:01.888197+00:00",
        "meta_object_name": "BEIDOU-3 M2 (C20)",
        "meta_object_id": "2017-069B",
        "meta_epoch": "2025-12-19T04:35:39.539904",
        "meta_mean_motion": 1.86231009,
        "meta_eccentricity": 0.0006519,
        "meta_inclination": 56.532,
        "meta_ra_of_asc_node": 69.0565,
        "meta_arg_of_pericenter": 330.2695,
        "meta_mean_anomaly": 29.7276,
        "meta_ephemeris_type": 0,
        "meta_classification_type": "U",
        "meta_norad_cat_id": 43002,
        "meta_element_set_no": 999,
        "meta_rev_at_epoch": 5524,
        "meta_bstar": 0,
        "meta_mean_motion_dot": -5.5e-07,
        "meta_mean_motion_ddot": 0,
        "tle_line1": "1 43002U 17069B   25353.19142986 -.00000055  00000+0  00000+0 0  9999",
        "tle_line2": "2 43002  56.5320  69.0565 0006519 330.2695  29.7276  1.86231009 55241"
      },
      "geometry": {
        "type": "Point",
        "coordinates": [
          159.65761974647518,
          56.555175973359674
        ]
      }
    },
    {
      "type": "Feature",
      "properties": {
        "norad_id": 43055,
        "name": "GSAT0215 (GALILEO 19)",
        "group": "gnss",
        "lat": 0.7680810814025935,
        "lon": 45.90621554754149,
        "alt_km": 23225.897013097034,
        "timestamp": "2025-12-20T09:36:01.888211+00:00",
        "meta_object_name": "GSAT0215 (GALILEO 19)",
        "meta_object_id": "2017-079A",
        "meta_epoch": "2025-12-18T08:21:56.206080",
        "meta_mean_motion": 1.70474068,
        "meta_eccentricity": 0.00012335,
        "meta_inclination": 55.1282,
        "meta_ra_of_asc_node": 226.4832,
        "meta_arg_of_pericenter": 345.8587,
        "meta_mean_anomaly": 14.2435,
        "meta_ephemeris_type": 0,
        "meta_classification_type": "U",
        "meta_norad_cat_id": 43055,
        "meta_element_set_no": 999,
        "meta_rev_at_epoch": 4990,
        "meta_bstar": 0,
        "meta_mean_motion_dot": 6.2e-07,
        "meta_mean_motion_ddot": 0,
        "tle_line1": "1 43055U 17079A   25352.34856720  .00000062  00000+0  00000+0 0  9999",
        "tle_line2": "2 43055  55.1282 226.4832 0001233 345.8587  14.2435  1.70474068 49906"
      },
      "geometry": {
        "type": "Point",
        "coordinates": [
          45.90621554754149,
          0.7680810814025935
        ]
      }
    },
    {
      "type": "Feature",
      "properties": {
        "norad_id": 43056,
        "name": "GSAT0216 (GALILEO 20)",
        "group": "gnss",
        "lat": 0.21090284371449147,
        "lon": -133.4114808365614,
        "alt_km": 23216.765974102993,
        "timestamp": "2025-12-20T09:36:01.888222+00:00",
        "meta_object_name": "GSAT0216 (GALILEO 20)",
        "meta_object_id": "2017-079B",
        "meta_epoch": "2025-12-19T19:30:44.926272",
        "meta_mean_motion": 1.70474153,
        "meta_eccentricity": 0.0002369,
        "meta_inclination": 55.1281,
        "meta_ra_of_asc_node": 226.4428,
        "meta_arg_of_pericenter": 323.7267,
        "meta_mean_anomaly": 36.3665,
        "meta_ephemeris_type": 0,
        "meta_classification_type": "U",
        "meta_norad_cat_id": 43056,
        "meta_element_set_no": 999,
        "meta_rev_at_epoch": 4994,
        "meta_bstar": 0,
        "meta_mean_motion_dot": 6.9e-07,
        "meta_mean_motion_ddot": 0,
        "tle_line1": "1 43056U 17079B   25353.81301998  .00000069  00000+0  00000+0 0  9992",
        "tle_line2": "2 43056  55.1281 226.4428 0002369 323.7267  36.3665  1.70474153 49947"
      },
      "geometry": {
        "type": "Point",
        "coordinates": [
          -133.4114808365614,
          0.21090284371449147
        ]
      }
    }
  ]
}